O3B MPOWER F1           
1 54755U 22174A   24187.92603421 -.00000027  00000+0  00000+0 0  9999
2 54755   0.0603 352.1574 0006833 111.4948 246.6362  5.00114162 29776
